{
  "norad_id": 51870,
  "name": "STARLINK-3591",
  "history": [
    {
      "epoch": "2026-03-28T20:02:29.892480",
      "apogee_km": 540.3583506977384,
      "perigee_km": 539.1345771129736,
      "latitude_deg": -43.373320766148694,
      "longitude_deg": 167.16654719994403,
      "semi_major_axis_km": 6917.883463905356,
      "eccentricity": 8.845e-05,
      "inclination_deg": 53.2172,
      "raan_deg": 283.176,
      "arg_perigee_deg": 110.4125,
      "mean_anomaly_deg": 249.6962,
      "mean_motion_rev_day": 15.08838994
    }
  ]
}